{
    "links": {
        "self": "http://www.neowsapp.com/rest/v1/neo/54017181?api_key=iIulBulltgU6a56xZRHN4H3l9WmuAYTsLGpBGhQ2"
    },
    "id": "54017181",
    "neo_reference_id": "54017181",
    "name": "(2020 KC3)",
    "designation": "2020 KC3",
    "nasa_jpl_url": "http://ssd.jpl.nasa.gov/sbdb.cgi?sstr=54017181",
    "absolute_magnitude_h": 23.911,
    "estimated_diameter": {
        "kilometers": {
            "estimated_diameter_min": 0.0438889283,
            "estimated_diameter_max": 0.0981386272
        },
        "meters": {
            "estimated_diameter_min": 43.8889283439,
            "estimated_diameter_max": 98.1386272366
        },
        "miles": {
            "estimated_diameter_min": 0.0272713073,
            "estimated_diameter_max": 0.0609804969
        },
        "feet": {
            "estimated_diameter_min": 143.9925516678,
            "estimated_diameter_max": 321.9771337828
        }
    },
    "is_potentially_hazardous_asteroid": false,
    "close_approach_data": [
        {
            "close_approach_date": "1930-05-19",
            "close_approach_date_full": "1930-May-19 19:25",
            "epoch_date_close_approach": -1250310900000,
            "relative_velocity": {
                "kilometers_per_second": "11.7662293665",
                "kilometers_per_hour": "42358.4257194205",
                "miles_per_hour": "26319.8784699366"
            },
            "miss_distance": {
                "astronomical": "0.024863839",
                "lunar": "9.672033371",
                "kilometers": "3719577.35442293",
                "miles": "2311238.194499234"
            },
            "orbiting_body": "Earth"
        },
        {
            "close_approach_date": "1941-05-09",
            "close_approach_date_full": "1941-May-09 12:37",
            "epoch_date_close_approach": -904044180000,
            "relative_velocity": {
                "kilometers_per_second": "9.8335935279",
                "kilometers_per_hour": "35400.9367005484",
                "miles_per_hour": "21996.7653626269"
            },
            "miss_distance": {
                "astronomical": "0.0462402405",
                "lunar": "17.9874535545",
                "kilometers": "6917441.487087735",
                "miles": "4298298.825311343"
            },
            "orbiting_body": "Earth"
        },
        {
            "close_approach_date": "2020-05-10",
            "close_approach_date_full": "2020-May-10 14:41",
            "epoch_date_close_approach": 1589121660000,
            "relative_velocity": {
                "kilometers_per_second": "9.9111673529",
                "kilometers_per_hour": "35680.2024703524",
                "miles_per_hour": "22170.2902516476"
            },
            "miss_distance": {
                "astronomical": "0.0435906808",
                "lunar": "16.9567748312",
                "kilometers": "6521072.999529896",
                "miles": "4052006.8678527248"
            },
            "orbiting_body": "Earth"
        }
    ],
    "orbital_data": {
        "orbit_id": "4",
        "orbit_determination_date": "2020-06-14 06:29:38",
        "first_observation_date": "2020-05-20",
        "last_observation_date": "2020-06-13",
        "data_arc_in_days": 24,
        "observations_used": 26,
        "orbit_uncertainty": "8",
        "minimum_orbit_intersection": ".00862302",
        "jupiter_tisserand_invariant": "4.076",
        "epoch_osculation": "2458991.5",
        "eccentricity": ".4842583059326068",
        "semi_major_axis": "1.688284755725145",
        "inclination": "4.499438889939427",
        "ascending_node_longitude": "230.5023958129661",
        "orbital_period": "801.2480312914741",
        "perihelion_distance": ".8707188399858414",
        "perihelion_argument": "311.4770985278951",
        "aphelion_distance": "2.505850671464449",
        "perihelion_time": "2458943.030174662420",
        "mean_anomaly": "21.77744773163909",
        "mean_motion": ".4492990758676085",
        "equinox": "J2000",
        "orbit_class": {
            "orbit_class_type": "APO",
            "orbit_class_description": "Near-Earth asteroid orbits which cross the Earth’s orbit similar to that of 1862 Apollo",
            "orbit_class_range": "a (semi-major axis) > 1.0 AU; q (perihelion) < 1.017 AU"
        }
    },
    "is_sentry_object": false
}